{"type": "FeatureCollection", "features": [{"type": "Feature", "properties": {"norad_id": 2807, "name": "OPS 7218 (TRANSIT 16)", "group": "nnss", "lat": -44.38163554104314, "lon": 174.11382313989182, "alt_km": 1086.527295039985, "timestamp": "2025-12-19T10:50:01.469523+00:00", "meta": {"OBJECT_NAME": "OPS 7218 (TRANSIT 16)", "OBJECT_ID": "1967-048A", "EPOCH": "2025-12-18T23:12:02.625984", "MEAN_MOTION": 13.50723543, "ECCENTRICITY": 0.00221284, "INCLINATION": 89.6731, "RA_OF_ASC_NODE": 353.8097, "ARG_OF_PERICENTER": 97.434, "MEAN_ANOMALY": 291.1163, "EPHEMERIS_TYPE": 0, "CLASSIFICATION_TYPE": "U", "NORAD_CAT_ID": 2807, "ELEMENT_SET_NO": 999, "REV_AT_EPOCH": 88360, "BSTAR": 0.00016722579, "MEAN_MOTION_DOT": 1.18e-06, "MEAN_MOTION_DDOT": 0}, "tle": {"line1": "1 02807U 67048A   25352.96669706  .00000118  00000+0  16723-3 0  9999", "line2": "2 02807  89.6731 353.8097 0022128  97.4340 291.1163 13.50723543883601"}}, "geometry": {"type": "Point", "coordinates": [174.11382313989182, -44.38163554104314]}}, {"type": "Feature", "properties": {"norad_id": 2965, "name": "OPS 4947 (TRANSIT 17)", "group": "nnss", "lat": -5.271927390016801, "lon": 23.854549471097457, "alt_km": 1089.7825366283287, "timestamp": "2025-12-19T10:50:01.469545+00:00", "meta": {"OBJECT_NAME": "OPS 4947 (TRANSIT 17)", "OBJECT_ID": "1967-092A", "EPOCH": "2025-12-18T15:55:18.517728", "MEAN_MOTION": 13.53455041, "ECCENTRICITY": 0.00465781, "INCLINATION": 89.249, "RA_OF_ASC_NODE": 23.9839, "ARG_OF_PERICENTER": 216.8425, "MEAN_ANOMALY": 260.4807, "EPHEMERIS_TYPE": 0, "CLASSIFICATION_TYPE": "U", "NORAD_CAT_ID": 2965, "ELEMENT_SET_NO": 999, "REV_AT_EPOCH": 87177, "BSTAR": 0.00020504279, "MEAN_MOTION_DOT": 1.5e-06, "MEAN_MOTION_DDOT": 0}, "tle": {"line1": "1 02965U 67092A   25352.66340877  .00000150  00000+0  20504-3 0  9993", "line2": "2 02965  89.2490  23.9839 0046578 216.8425 260.4807 13.53455041871776"}}, "geometry": {"type": "Point", "coordinates": [23.854549471097457, -5.271927390016801]}}, {"type": "Feature", "properties": {"norad_id": 3133, "name": "OPS 7034 (TRANSIT 18)", "group": "nnss", "lat": 82.53878698349956, "lon": 93.87413214817455, "alt_km": 1024.9859706280495, "timestamp": "2025-12-19T10:50:01.469559+00:00", "meta": {"OBJECT_NAME": "OPS 7034 (TRANSIT 18)", "OBJECT_ID": "1968-012A", "EPOCH": "2025-12-18T20:27:56.179584", "MEAN_MOTION": 13.51567077, "ECCENTRICITY": 0.00744457, "INCLINATION": 90.0283, "RA_OF_ASC_NODE": 273.6562, "ARG_OF_PERICENTER": 151.4942, "MEAN_ANOMALY": 275.4365, "EPHEMERIS_TYPE": 0, "CLASSIFICATION_TYPE": "U", "NORAD_CAT_ID": 3133, "ELEMENT_SET_NO": 999, "REV_AT_EPOCH": 57001, "BSTAR": 0.00014195099, "MEAN_MOTION_DOT": 1.04e-06, "MEAN_MOTION_DDOT": 0}, "tle": {"line1": "1 03133U 68012A   25352.85273356  .00000104  00000+0  14195-3 0  9990", "line2": "2 03133  90.0283 273.6562 0074445 151.4942 275.4365 13.51567077570012"}}, "geometry": {"type": "Point", "coordinates": [93.87413214817455, 82.53878698349956]}}, {"type": "Feature", "properties": {"norad_id": 4507, "name": "NNSS 19 (TRANSIT 19)", "group": "nnss", "lat": 64.44694764466603, "lon": -125.47228464290777, "alt_km": 1171.31202565069, "timestamp": "2025-12-19T10:50:01.469571+00:00", "meta": {"OBJECT_NAME": "NNSS 19 (TRANSIT 19)", "OBJECT_ID": "1970-067A", "EPOCH": "2025-12-18T16:44:24.349056", "MEAN_MOTION": 13.51316268, "ECCENTRICITY": 0.01702834, "INCLINATION": 90.0051, "RA_OF_ASC_NODE": 234.538, "ARG_OF_PERICENTER": 275.9496, "MEAN_ANOMALY": 82.2271, "EPHEMERIS_TYPE": 0, "CLASSIFICATION_TYPE": "U", "NORAD_CAT_ID": 4507, "ELEMENT_SET_NO": 999, "REV_AT_EPOCH": 72302, "BSTAR": 0.00012940262, "MEAN_MOTION_DOT": 9.9e-07, "MEAN_MOTION_DDOT": 0}, "tle": {"line1": "1 04507U 70067A   25352.69750404  .00000099  00000+0  12940-3 0  9994", "line2": "2 04507  90.0051 234.5380 0170283 275.9496  82.2271 13.51316268723023"}}, "geometry": {"type": "Point", "coordinates": [-125.47228464290777, 64.44694764466603]}}, {"type": "Feature", "properties": {"norad_id": 6909, "name": "NNSS 20 (TRANSIT 20)", "group": "nnss", "lat": -80.97165754833625, "lon": 75.8592386348267, "alt_km": 1108.1968746692128, "timestamp": "2025-12-19T10:50:01.469582+00:00", "meta": {"OBJECT_NAME": "NNSS 20 (TRANSIT 20)", "OBJECT_ID": "1973-081A", "EPOCH": "2025-12-18T17:48:34.966368", "MEAN_MOTION": 13.71437204, "ECCENTRICITY": 0.01564871, "INCLINATION": 89.8562, "RA_OF_ASC_NODE": 254.9643, "ARG_OF_PERICENTER": 60.5426, "MEAN_ANOMALY": 301.1248, "EPHEMERIS_TYPE": 0, "CLASSIFICATION_TYPE": "U", "NORAD_CAT_ID": 6909, "ELEMENT_SET_NO": 999, "REV_AT_EPOCH": 80443, "BSTAR": 0.00023051268, "MEAN_MOTION_DOT": 2.38e-06, "MEAN_MOTION_DDOT": 0}, "tle": {"line1": "1 06909U 73081A   25352.74207137  .00000238  00000+0  23051-3 0  9997", "line2": "2 06909  89.8562 254.9643 0156487  60.5426 301.1248 13.71437204804431"}}, "geometry": {"type": "Point", "coordinates": [75.8592386348267, -80.97165754833625]}}, {"type": "Feature", "properties": {"norad_id": 10457, "name": "TRANSAT", "group": "nnss", "lat": 11.08479608869486, "lon": 78.42839410471639, "alt_km": 1095.6216603516395, "timestamp": "2025-12-19T10:50:01.469593+00:00", "meta": {"OBJECT_NAME": "TRANSAT", "OBJECT_ID": "1977-106A", "EPOCH": "2025-12-18T19:19:02.299008", "MEAN_MOTION": 13.48944476, "ECCENTRICITY": 0.00259704, "INCLINATION": 89.6481, "RA_OF_ASC_NODE": 78.3823, "ARG_OF_PERICENTER": 172.0825, "MEAN_ANOMALY": 301.4631, "EPHEMERIS_TYPE": 0, "CLASSIFICATION_TYPE": "U", "NORAD_CAT_ID": 10457, "ELEMENT_SET_NO": 999, "REV_AT_EPOCH": 36825, "BSTAR": 9.7958872e-05, "MEAN_MOTION_DOT": 7.2e-07, "MEAN_MOTION_DDOT": 0}, "tle": {"line1": "1 10457U 77106A   25352.80488772  .00000072  00000+0  97959-4 0  9990", "line2": "2 10457  89.6481  78.3823 0025970 172.0825 301.4631 13.48944476368256"}}, "geometry": {"type": "Point", "coordinates": [78.42839410471639, 11.08479608869486]}}, {"type": "Feature", "properties": {"norad_id": 12458, "name": "NOVA 1", "group": "nnss", "lat": 13.2711148375524, "lon": 91.32518497638242, "alt_km": 1169.9344923604813, "timestamp": "2025-12-19T10:50:01.469603+00:00", "meta": {"OBJECT_NAME": "NOVA 1", "OBJECT_ID": "1981-044A", "EPOCH": "2025-12-18T20:50:47.643072", "MEAN_MOTION": 13.2327898, "ECCENTRICITY": 0.00158922, "INCLINATION": 89.8528, "RA_OF_ASC_NODE": 91.2987, "ARG_OF_PERICENTER": 88.9627, "MEAN_ANOMALY": 29.8592, "EPHEMERIS_TYPE": 0, "CLASSIFICATION_TYPE": "U", "NORAD_CAT_ID": 12458, "ELEMENT_SET_NO": 999, "REV_AT_EPOCH": 15267, "BSTAR": 0.00011365561, "MEAN_MOTION_DOT": 5.7e-07, "MEAN_MOTION_DDOT": 0}, "tle": {"line1": "1 12458U 81044A   25352.86860698  .00000057  00000+0  11366-3 0  9996", "line2": "2 12458  89.8528  91.2987 0015892  88.9627  29.8592 13.23278980152672"}}, "geometry": {"type": "Point", "coordinates": [91.32518497638242, 13.2711148375524]}}, {"type": "Feature", "properties": {"norad_id": 15362, "name": "NOVA 3", "group": "nnss", "lat": -60.3267192246833, "lon": -99.60087787417434, "alt_km": 1173.4450526170904, "timestamp": "2025-12-19T10:50:01.469614+00:00", "meta": {"OBJECT_NAME": "NOVA 3", "OBJECT_ID": "1984-110A", "EPOCH": "2025-12-18T19:40:56.942400", "MEAN_MOTION": 13.23045208, "ECCENTRICITY": 0.00300717, "INCLINATION": 90.1222, "RA_OF_ASC_NODE": 80.6063, "ARG_OF_PERICENTER": 314.5252, "MEAN_ANOMALY": 160.9402, "EPHEMERIS_TYPE": 0, "CLASSIFICATION_TYPE": "U", "NORAD_CAT_ID": 15362, "ELEMENT_SET_NO": 999, "REV_AT_EPOCH": 98779, "BSTAR": 0.00011849816, "MEAN_MOTION_DOT": 5.8e-07, "MEAN_MOTION_DDOT": 0}, "tle": {"line1": "1 15362U 84110A   25352.82010350  .00000058  00000+0  11850-3 0  9997", "line2": "2 15362  90.1222  80.6063 0030071 314.5252 160.9402 13.23045208987791"}}, "geometry": {"type": "Point", "coordinates": [-99.60087787417434, -60.3267192246833]}}, {"type": "Feature", "properties": {"norad_id": 15935, "name": "OSCAR 30", "group": "nnss", "lat": -85.12564094240719, "lon": 101.90022732211662, "alt_km": 1241.1636968999155, "timestamp": "2025-12-19T10:50:01.469625+00:00", "meta": {"OBJECT_NAME": "OSCAR 30", "OBJECT_ID": "1985-066A", "EPOCH": "2025-12-18T21:30:02.918304", "MEAN_MOTION": 13.36079203, "ECCENTRICITY": 0.01692605, "INCLINATION": 90.1656, "RA_OF_ASC_NODE": 99.9478, "ARG_OF_PERICENTER": 66.7281, "MEAN_ANOMALY": 58.6168, "EPHEMERIS_TYPE": 0, "CLASSIFICATION_TYPE": "U", "NORAD_CAT_ID": 15935, "ELEMENT_SET_NO": 999, "REV_AT_EPOCH": 96535, "BSTAR": 0.00011351826, "MEAN_MOTION_DOT": 7.3e-07, "MEAN_MOTION_DDOT": 0}, "tle": {"line1": "1 15935U 85066A   25352.89586711  .00000073  00000+0  11352-3 0  9994", "line2": "2 15935  90.1656  99.9478 0169260  66.7281  58.6168 13.36079203965358"}}, "geometry": {"type": "Point", "coordinates": [101.90022732211662, -85.12564094240719]}}, {"type": "Feature", "properties": {"norad_id": 15936, "name": "OSCAR 24", "group": "nnss", "lat": -14.303646808037442, "lon": 92.46974743284757, "alt_km": 1117.4935484139414, "timestamp": "2025-12-19T10:50:01.469636+00:00", "meta": {"OBJECT_NAME": "OSCAR 24", "OBJECT_ID": "1985-066B", "EPOCH": "2025-12-18T19:16:46.005600", "MEAN_MOTION": 13.35936567, "ECCENTRICITY": 0.0170386, "INCLINATION": 90.1792, "RA_OF_ASC_NODE": 92.4126, "ARG_OF_PERICENTER": 73.4218, "MEAN_ANOMALY": 39.2295, "EPHEMERIS_TYPE": 0, "CLASSIFICATION_TYPE": "U", "NORAD_CAT_ID": 15936, "ELEMENT_SET_NO": 999, "REV_AT_EPOCH": 96724, "BSTAR": 9.906903e-05, "MEAN_MOTION_DOT": 6.5e-07, "MEAN_MOTION_DDOT": 0}, "tle": {"line1": "1 15936U 85066B   25352.80331025  .00000065  00000+0  99069-4 0  9995", "line2": "2 15936  90.1792  92.4126 0170386  73.4218  39.2295 13.35936567967244"}}, "geometry": {"type": "Point", "coordinates": [92.46974743284757, -14.303646808037442]}}]}